     2.100          NAVIGATION                              RINEX VERSION / TYPE
fic2rin                                 04/11/2014 00:40:15 PGM / RUN BY / DATE
                                                            END OF HEADER
25 14  4 11  0  0  0.0  .214092433453D-04  .102318153949D-11  .000000000000D+00
     .940000000000D+02  .506562500000D+02  .432339437244D-08 -.239617997801D+01
     .260025262833D-05  .345186935738D-02  .766292214394D-05  .515362800598D+04
     .432000000000D+06  .726431608200D-07 -.292241677185D+01 -.614672899246D-07
     .976158182461D+00  .239687500000D+03  .635005263592D+00 -.796997483859D-08
     .354300472323D-09  .100000000000D+01  .178700000000D+04  .000000000000D+00
     .240000000000D+01  .000000000000D+00  .558793544769D-08  .940000000000D+02
     .424806000000D+06  .400000000000D+01
26 14  4 11  0  0  0.0  .112485140562D-03 -.112549969344D-10  .000000000000D+00
     .730000000000D+02 -.168750000000D+02  .453340312015D-08  .332758620321D+00
    -.992789864540D-06  .214828916360D-01  .523589551449D-05  .515368415642D+04
     .432000000000D+06 -.339001417160D-06  .136707455073D+01  .316649675369D-07
     .975192431239D+00  .290187500000D+03  .127615421551D+01 -.851285459456D-08
    -.213223167315D-09  .100000000000D+01  .178700000000D+04  .000000000000D+00
     .340000000000D+01  .000000000000D+00 -.605359673500D-08  .730000000000D+02
     .424806000000D+06  .400000000000D+01
27 14  4 11  0  0  0.0 -.199396163225D-04  .682121026330D-12  .000000000000D+00
     .870000000000D+02 -.353437500000D+02  .492449083910D-08  .169706453860D+01
    -.163540244102D-05  .108523026574D-02  .436417758465D-05  .515367078781D+04
     .432000000000D+06  .633299350739D-07 -.187484606780D+01  .875443220139D-07
     .962626959722D+00  .294781250000D+03  .568389214435D-01 -.845499504162D-08
    -.196436753808D-09  .100000000000D+01  .178700000000D+04  .000000000000D+00
     .240000000000D+01  .000000000000D+00  .186264514923D-08  .870000000000D+02
     .424806000000D+06  .400000000000D+01
28 14  4 11  0  0  0.0  .346335116774D-03  .284217094304D-11  .000000000000D+00
     .370000000000D+02  .525000000000D+02  .401802450971D-08  .239253347037D+01
     .256113708019D-05  .191521544475D-01  .748224556446D-05  .515366688728D+04
     .432000000000D+06  .145286321640D-06 -.285619676388D+01 -.223517417908D-06
     .986541525872D+00  .243062500000D+03 -.171666269620D+01 -.754602860809D-08
     .263582407837D-09  .100000000000D+01  .178700000000D+04  .000000000000D+00
     .240000000000D+01  .000000000000D+00 -.107102096081D-07  .370000000000D+02
     .424806000000D+06  .400000000000D+01
29 14  4 11  0  0  0.0  .524585135281D-03  .261479726760D-11  .000000000000D+00
     .560000000000D+02 -.375000000000D+02  .463483591666D-08 -.191160620015D+01
    -.208802521229D-05  .167481391691D-02  .462681055069D-05  .515372356224D+04
     .432000000000D+06 -.102445483208D-06 -.182055352497D+01  .167638063431D-07
     .968608435298D+00  .291375000000D+03 -.927253871206D+00 -.823855745470D-08
    -.238581366443D-09  .100000000000D+01  .178700000000D+04  .000000000000D+00
     .240000000000D+01  .000000000000D+00 -.931322574615D-08  .560000000000D+02
     .424806000000D+06  .400000000000D+01
31 14  4 11  0  0  0.0  .334171578288D-03  .113686837722D-12  .000000000000D+00
     .680000000000D+02 -.136250000000D+02  .406016912234D-08 -.136143372733D+01
    -.990927219391D-06  .807482609525D-02  .109635293484D-04  .515381229210D+04
     .432000000000D+06 -.894069671631D-07  .234670861923D+01 -.132247805595D-06
     .978658860978D+00  .181156250000D+03 -.629450396873D+00 -.787961393183D-08
    -.814319633967D-10  .100000000000D+01  .178700000000D+04  .000000000000D+00
     .240000000000D+01  .000000000000D+00 -.130385160446D-07  .680000000000D+02
     .424806000000D+06  .400000000000D+01
32 14  4 11  0  0  0.0 -.451894011348D-03  .761701812735D-11  .000000000000D+00
     .290000000000D+02  .589687500000D+02  .486841707483D-08 -.604321668697D+00
     .301748514175D-05  .114300191635D-01  .765547156334D-05  .515376319504D+04
     .432000000000D+06  .191852450371D-06  .307467620883D+00 -.240281224251D-06
     .948334214978D+00  .226406250000D+03 -.172450206603D+00 -.833891877801D-08
     .361800784741D-09  .100000000000D+01  .178700000000D+04  .000000000000D+00
     .240000000000D+01  .000000000000D+00 -.325962901115D-08  .290000000000D+02
     .424806000000D+06  .400000000000D+01
26 14  4 10 23 59 44.0  .112481880933D-03 -.112549969344D-10  .000000000000D+00
     .900000000000D+01 -.168750000000D+02  .453340312015D-08  .330424974864D+00
    -.994652509689D-06  .214828907046D-01  .523589551449D-05  .515368415070D+04
     .431984000000D+06 -.337138772011D-06  .136707467361D+01  .316649675369D-07
     .975192457572D+00  .290187500000D+03  .127615417162D+01 -.851285459456D-08
    -.213223167315D-09  .100000000000D+01  .178700000000D+04  .000000000000D+00
     .240000000000D+01  .000000000000D+00 -.605359673500D-08  .900000000000D+01
     .425346000000D+06  .400000000000D+01
13 14  4 10 23 59 44.0  .110464170575D-04 -.386535248253D-11  .000000000000D+00
     .200000000000D+01 -.205000000000D+02  .438339687179D-08  .112928466027D+01
    -.109151005745D-05  .535930076148D-02  .492483377457D-05  .515360134888D+04
     .431984000000D+06  .121071934700D-06  .137565194225D+01 -.800937414169D-07
     .977793996976D+00  .292687500000D+03  .222217184411D+01 -.815426822943D-08
    -.125362364703D-09  .100000000000D+01  .178700000000D+04  .000000000000D+00
     .240000000000D+01  .000000000000D+00 -.111758708954D-07  .200000000000D+01
     .426906000000D+06  .400000000000D+01
20 14  4 10 23 57 52.0  .178442802280D-03  .363797880709D-11  .000000000000D+00
     .240000000000D+02  .601250000000D+02  .510271254846D-08 -.260002803902D+01
     .316835939884D-05  .584210327361D-02  .882521271706D-05  .515381930733D+04
     .431872000000D+06  .447034835815D-07  .161302144710D+00 -.670552253723D-07
     .927418158369D+00  .191312500000D+03  .133250916561D+01 -.824248618978D-08
     .351086052715D-09  .100000000000D+01  .178700000000D+04  .000000000000D+00
     .340000000000D+01  .000000000000D+00 -.791624188423D-08  .240000000000D+02
     .430386000000D+06  .400000000000D+01
